[{"OBJECT_NAME":"ONEWEB-0663","OBJECT_ID":"2023-029AD","EPOCH":"2026-03-20T03:42:27.975744","MEAN_MOTION":13.20863646,"ECCENTRICITY":0.00019745,"INCLINATION":87.9161,"RA_OF_ASC_NODE":292.2794,"ARG_OF_PERICENTER":98.4264,"MEAN_ANOMALY":261.7094,"EPHEMERIS_TYPE":0,"CLASSIFICATION_TYPE":"U","NORAD_CAT_ID":55823,"ELEMENT_SET_NO":999,"REV_AT_EPOCH":14939,"BSTAR":0.00022773827,"MEAN_MOTION_DOT":1.06e-6,"MEAN_MOTION_DDOT":0},{"OBJECT_NAME":"ONEWEB-0664","OBJECT_ID":"2023-029AE","EPOCH":"2026-03-20T02:26:07.242144","MEAN_MOTION":13.2077076,"ECCENTRICITY":0.00013908,"INCLINATION":87.9145,"RA_OF_ASC_NODE":292.2811,"ARG_OF_PERICENTER":103.737,"MEAN_ANOMALY":256.3918,"EPHEMERIS_TYPE":0,"CLASSIFICATION_TYPE":"U","NORAD_CAT_ID":55824,"ELEMENT_SET_NO":999,"REV_AT_EPOCH":14938,"BSTAR":-4.279916e-6,"MEAN_MOTION_DOT":1.1e-7,"MEAN_MOTION_DDOT":0},{"OBJECT_NAME":"ONEWEB-0665","OBJECT_ID":"2023-029AF","EPOCH":"2026-03-20T04:14:25.461312","MEAN_MOTION":13.14503146,"ECCENTRICITY":0.00018632,"INCLINATION":87.8973,"RA_OF_ASC_NODE":307.4943,"ARG_OF_PERICENTER":97.0385,"MEAN_ANOMALY":263.0957,"EPHEMERIS_TYPE":0,"CLASSIFICATION_TYPE":"U","NORAD_CAT_ID":55825,"ELEMENT_SET_NO":999,"REV_AT_EPOCH":14771,"BSTAR":0.00010622312,"MEAN_MOTION_DOT":5.2e-7,"MEAN_MOTION_DDOT":0},{"OBJECT_NAME":"ONEWEB-0666","OBJECT_ID":"2023-029AG","EPOCH":"2026-03-20T02:17:02.274144","MEAN_MOTION":13.20770975,"ECCENTRICITY":0.0001736,"INCLINATION":87.9146,"RA_OF_ASC_NODE":292.2717,"ARG_OF_PERICENTER":63.9863,"MEAN_ANOMALY":296.1449,"EPHEMERIS_TYPE":0,"CLASSIFICATION_TYPE":"U","NORAD_CAT_ID":55826,"ELEMENT_SET_NO":999,"REV_AT_EPOCH":14939,"BSTAR":0.00042364738,"MEAN_MOTION_DOT":1.85e-6,"MEAN_MOTION_DDOT":0},{"OBJECT_NAME":"ONEWEB-0667","OBJECT_ID":"2023-029AH","EPOCH":"2026-03-20T02:07:57.320832","MEAN_MOTION":13.20771471,"ECCENTRICITY":0.00016824,"INCLINATION":87.9163,"RA_OF_ASC_NODE":292.2156,"ARG_OF_PERICENTER":93.8517,"MEAN_ANOMALY":266.2809,"EPHEMERIS_TYPE":0,"CLASSIFICATION_TYPE":"U","NORAD_CAT_ID":55827,"ELEMENT_SET_NO":999,"REV_AT_EPOCH":14938,"BSTAR":9.6318472e-5,"MEAN_MOTION_DOT":5.2e-7,"MEAN_MOTION_DDOT":0},{"OBJECT_NAME":"ONEWEB-0669","OBJECT_ID":"2023-029AJ","EPOCH":"2026-03-20T02:01:08.056128","MEAN_MOTION":13.20771617,"ECCENTRICITY":0.00010721,"INCLINATION":87.9147,"RA_OF_ASC_NODE":292.2397,"ARG_OF_PERICENTER":82.2687,"MEAN_ANOMALY":277.8568,"EPHEMERIS_TYPE":0,"CLASSIFICATION_TYPE":"U","NORAD_CAT_ID":55828,"ELEMENT_SET_NO":999,"REV_AT_EPOCH":14938,"BSTAR":6.893775e-5,"MEAN_MOTION_DOT":4.1e-7,"MEAN_MOTION_DDOT":0},{"OBJECT_NAME":"ONEWEB-0670","OBJECT_ID":"2023-029AK","EPOCH":"2026-03-20T03:42:26.839584","MEAN_MOTION":13.14504006,"ECCENTRICITY":0.00014268,"INCLINATION":87.8959,"RA_OF_ASC_NODE":307.519,"ARG_OF_PERICENTER":98.0673,"MEAN_ANOMALY":262.0619,"EPHEMERIS_TYPE":0,"CLASSIFICATION_TYPE":"U","NORAD_CAT_ID":55829,"ELEMENT_SET_NO":999,"REV_AT_EPOCH":14773,"BSTAR":0.00078928173,"MEAN_MOTION_DOT":3.05e-6,"MEAN_MOTION_DDOT":0},{"OBJECT_NAME":"ONEWEB-0671","OBJECT_ID":"2023-029AL","EPOCH":"2026-03-20T04:56:57.668928","MEAN_MOTION":13.1972573,"ECCENTRICITY":0.00017377,"INCLINATION":87.9214,"RA_OF_ASC_NODE":322.7125,"ARG_OF_PERICENTER":88.1841,"MEAN_ANOMALY":271.9491,"EPHEMERIS_TYPE":0,"CLASSIFICATION_TYPE":"U","NORAD_CAT_ID":55830,"ELEMENT_SET_NO":999,"REV_AT_EPOCH":14716,"BSTAR":3.3604053e-5,"MEAN_MOTION_DOT":2.6e-7,"MEAN_MOTION_DDOT":0},{"OBJECT_NAME":"ONEWEB-0672","OBJECT_ID":"2023-029AM","EPOCH":"2026-03-20T01:54:18.018144","MEAN_MOTION":13.20771871,"ECCENTRICITY":0.00015266,"INCLINATION":87.9156,"RA_OF_ASC_NODE":292.2284,"ARG_OF_PERICENTER":77.4698,"MEAN_ANOMALY":282.6606,"EPHEMERIS_TYPE":0,"CLASSIFICATION_TYPE":"U","NORAD_CAT_ID":55831,"ELEMENT_SET_NO":999,"REV_AT_EPOCH":14938,"BSTAR":0.00029059487,"MEAN_MOTION_DOT":1.31e-6,"MEAN_MOTION_DDOT":0},{"OBJECT_NAME":"ONEWEB-0673","OBJECT_ID":"2023-029AN","EPOCH":"2026-03-20T04:23:58.260480","MEAN_MOTION":13.19724519,"ECCENTRICITY":0.00016769,"INCLINATION":87.9214,"RA_OF_ASC_NODE":322.7024,"ARG_OF_PERICENTER":85.7982,"MEAN_ANOMALY":274.3342,"EPHEMERIS_TYPE":0,"CLASSIFICATION_TYPE":"U","NORAD_CAT_ID":55832,"ELEMENT_SET_NO":999,"REV_AT_EPOCH":14716,"BSTAR":0.00022241033,"MEAN_MOTION_DOT":1.02e-6,"MEAN_MOTION_DDOT":0},{"OBJECT_NAME":"ONEWEB-0674","OBJECT_ID":"2023-029AP","EPOCH":"2026-03-20T01:07:09.969888","MEAN_MOTION":13.14503228,"ECCENTRICITY":0.00013818,"INCLINATION":87.8958,"RA_OF_ASC_NODE":307.5175,"ARG_OF_PERICENTER":97.7571,"MEAN_ANOMALY":262.3716,"EPHEMERIS_TYPE":0,"CLASSIFICATION_TYPE":"U","NORAD_CAT_ID":55833,"ELEMENT_SET_NO":999,"REV_AT_EPOCH":14770,"BSTAR":-0.00041497824,"MEAN_MOTION_DOT":-1.41e-6,"MEAN_MOTION_DDOT":0},{"OBJECT_NAME":"ONEWEB-0675","OBJECT_ID":"2023-029AQ","EPOCH":"2026-03-20T04:45:35.480448","MEAN_MOTION":13.19725269,"ECCENTRICITY":0.0001861,"INCLINATION":87.9212,"RA_OF_ASC_NODE":322.7152,"ARG_OF_PERICENTER":73.2688,"MEAN_ANOMALY":286.8649,"EPHEMERIS_TYPE":0,"CLASSIFICATION_TYPE":"U","NORAD_CAT_ID":55834,"ELEMENT_SET_NO":999,"REV_AT_EPOCH":14718,"BSTAR":-4.3377925e-5,"MEAN_MOTION_DOT":-4.0e-8,"MEAN_MOTION_DDOT":0},{"OBJECT_NAME":"ONEWEB-0720","OBJECT_ID":"2023-029AR","EPOCH":"2026-03-20T04:34:13.626336","MEAN_MOTION":13.19725374,"ECCENTRICITY":0.00019768,"INCLINATION":87.9212,"RA_OF_ASC_NODE":322.7175,"ARG_OF_PERICENTER":89.3382,"MEAN_ANOMALY":270.7977,"EPHEMERIS_TYPE":0,"CLASSIFICATION_TYPE":"U","NORAD_CAT_ID":55835,"ELEMENT_SET_NO":999,"REV_AT_EPOCH":14710,"BSTAR":7.0117784e-5,"MEAN_MOTION_DOT":4.1e-7,"MEAN_MOTION_DDOT":0},{"OBJECT_NAME":"ONEWEB-0537","OBJECT_ID":"2023-043A","EPOCH":"2026-03-20T04:51:06.108192","MEAN_MOTION":13.16593262,"ECCENTRICITY":0.00016297,"INCLINATION":87.9014,"RA_OF_ASC_NODE":246.4641,"ARG_OF_PERICENTER":90.8684,"MEAN_ANOMALY":269.2633,"EPHEMERIS_TYPE":0,"CLASSIFICATION_TYPE":"U","NORAD_CAT_ID":56046,"ELEMENT_SET_NO":999,"REV_AT_EPOCH":14725,"BSTAR":-1.5860368e-5,"MEAN_MOTION_DOT":7.0e-8,"MEAN_MOTION_DDOT":0},{"OBJECT_NAME":"ONEWEB-0538","OBJECT_ID":"2023-043B","EPOCH":"2026-03-20T04:41:59.229888","MEAN_MOTION":13.16594377,"ECCENTRICITY":0.00019151,"INCLINATION":87.9014,"RA_OF_ASC_NODE":246.4676,"ARG_OF_PERICENTER":92.4789,"MEAN_ANOMALY":267.6561,"EPHEMERIS_TYPE":0,"CLASSIFICATION_TYPE":"U","NORAD_CAT_ID":56047,"ELEMENT_SET_NO":999,"REV_AT_EPOCH":14726,"BSTAR":-0.00010289724,"MEAN_MOTION_DOT":-2.6e-7,"MEAN_MOTION_DDOT":0},{"OBJECT_NAME":"ONEWEB-0546","OBJECT_ID":"2023-043C","EPOCH":"2026-03-19T22:55:25.170816","MEAN_MOTION":13.16592453,"ECCENTRICITY":0.0001451,"INCLINATION":87.9018,"RA_OF_ASC_NODE":246.514,"ARG_OF_PERICENTER":74.4993,"MEAN_ANOMALY":285.6298,"EPHEMERIS_TYPE":0,"CLASSIFICATION_TYPE":"U","NORAD_CAT_ID":56048,"ELEMENT_SET_NO":999,"REV_AT_EPOCH":14722,"BSTAR":-8.5586e-5,"MEAN_MOTION_DOT":-2.0e-7,"MEAN_MOTION_DDOT":0}]
