ONEWEB-0663             
1 55823U 23029AD  26079.15449046  .00000106  00000+0  22774-3 0  9997
2 55823  87.9161 292.2794 0001974  98.4264 261.7094 13.20863646149390
ONEWEB-0664             
1 55824U 23029AE  26079.10147271  .00000011  00000+0 -42799-5 0  9995
2 55824  87.9145 292.2811 0001390 103.7370 256.3918 13.20770760149381
ONEWEB-0665             
1 55825U 23029AF  26079.17668358  .00000052  00000+0  10622-3 0  9999
2 55825  87.8973 307.4943 0001863  97.0385 263.0957 13.14503146147719
ONEWEB-0666             
1 55826U 23029AG  26079.09516521  .00000185  00000+0  42365-3 0  9991
2 55826  87.9146 292.2717 0001736  63.9863 296.1449 13.20770975149397
ONEWEB-0667             
1 55827U 23029AH  26079.08885788  .00000052  00000+0  96318-4 0  9996
2 55827  87.9163 292.2156 0001682  93.8517 266.2809 13.20771471149381
ONEWEB-0669             
1 55828U 23029AJ  26079.08412102  .00000041  00000+0  68938-4 0  9998
2 55828  87.9147 292.2397 0001072  82.2687 277.8568 13.20771617149386
ONEWEB-0670             
1 55829U 23029AK  26079.15447731  .00000305  00000+0  78928-3 0  9995
2 55829  87.8959 307.5190 0001426  98.0673 262.0619 13.14504006147730
ONEWEB-0671             
1 55830U 23029AL  26079.20622302  .00000026  00000+0  33604-4 0  9995
2 55830  87.9214 322.7125 0001737  88.1841 271.9491 13.19725730147164
ONEWEB-0672             
1 55831U 23029AM  26079.07937521  .00000131  00000+0  29059-3 0  9998
2 55831  87.9156 292.2284 0001526  77.4698 282.6606 13.20771871149386
ONEWEB-0673             
1 55832U 23029AN  26079.18331320  .00000102  00000+0  22241-3 0  9990
2 55832  87.9214 322.7024 0001676  85.7982 274.3342 13.19724519147161
ONEWEB-0674             
1 55833U 23029AP  26079.04664317 -.00000141  00000+0 -41498-3 0  9991
2 55833  87.8958 307.5175 0001381  97.7571 262.3716 13.14503228147703
ONEWEB-0675             
1 55834U 23029AQ  26079.19832732 -.00000004  00000+0 -43378-4 0  9994
2 55834  87.9212 322.7152 0001861  73.2688 286.8649 13.19725269147187
ONEWEB-0720             
1 55835U 23029AR  26079.19043549  .00000041  00000+0  70118-4 0  9996
2 55835  87.9212 322.7175 0001976  89.3382 270.7977 13.19725374147104
ONEWEB-0537             
1 56046U 23043A   26079.20215403  .00000007  00000+0 -15860-4 0  9995
2 56046  87.9014 246.4641 0001629  90.8684 269.2633 13.16593262147250
ONEWEB-0538             
1 56047U 23043B   26079.19582442 -.00000026  00000+0 -10290-3 0  9997
2 56047  87.9014 246.4676 0001915  92.4789 267.6561 13.16594377147262
ONEWEB-0546             
1 56048U 23043C   26078.95515244 -.00000020  00000+0 -85586-4 0  9992
2 56048  87.9018 246.5140 0001451  74.4993 285.6298 13.16592453147222
